CCSDS_OMM_VERS,COMMENT,CREATION_DATE,ORIGINATOR,OBJECT_NAME,OBJECT_ID,CENTER_NAME,REF_FRAME,TIME_SYSTEM,MEAN_ELEMENT_THEORY,EPOCH,MEAN_MOTION,ECCENTRICITY,INCLINATION,RA_OF_ASC_NODE,ARG_OF_PERICENTER,MEAN_ANOMALY,EPHEMERIS_TYPE,CLASSIFICATION_TYPE,NORAD_CAT_ID,ELEMENT_SET_NO,REV_AT_EPOCH,BSTAR,MEAN_MOTION_DOT,MEAN_MOTION_DDOT,SEMIMAJOR_AXIS,PERIOD,APOAPSIS,PERIAPSIS,OBJECT_TYPE,RCS_SIZE,COUNTRY_CODE,LAUNCH_DATE,SITE,DECAY_DATE,FILE,GP_ID,TLE_LINE0,TLE_LINE1,TLE_LINE2
"2.0","GENERATED VIA SPACE-TRACK.ORG API","2009-03-31T07:42:56","18 SPCS","IRIDIUM 33","1997-051C","EARTH","TEME","UTC","SGP4","2009-03-30T12:59:14.282592","14.32471851","0.00063840","86.3817","101.2957","301.6885","58.3669","0","U","24946","999","60431","0.00002021500000","0.00000074","0.0000000000000","7161.621","100.525","788.058","778.914","PAYLOAD","LARGE","US","1997-09-14","TTMTR","","694230","70556943","0 IRIDIUM 33","1 24946U 97051C   09089.54113753  .00000074  00000-0  20215-4 0  9997","2 24946 086.3817 101.2957 0006384 301.6885 058.3669 14.32471851604314"
"2.0","GENERATED VIA SPACE-TRACK.ORG API","2009-03-31T08:03:04","18 SPCS","COSMOS 2251","1993-036A","EARTH","TEME","UTC","SGP4","2009-03-31T12:25:20.464607","14.32042832","0.00245880","74.0367","288.2346","56.4119","303.9360","0","U","22675","999","82457","0.00000504930000","-0.00000012","0.0000000000000","7163.052","100.555","802.529","767.304","PAYLOAD","LARGE","CIS","1993-06-16","PKMTR","","694242","70564329","0 COSMOS 2251","1 22675U 93036A   09090.51759797 -.00000012  00000-0  50493-5 0  9991","2 22675 074.0367 288.2346 0024588 056.4119 303.9360 14.32042832824576"
"2.0","GENERATED VIA SPACE-TRACK.ORG API","2009-03-31T08:03:20","18 SPCS","IRIDIUM 33","1997-051C","EARTH","TEME","UTC","SGP4","2009-03-31T12:27:29.031263","14.32471913","0.00062830","86.3816","100.8865","297.5705","62.4852","0","U","24946","999","60445","0.00001882400000","0.00000071","0.0000000000000","7161.621","100.525","787.986","778.987","PAYLOAD","LARGE","US","1997-09-14","TTMTR","","694243","70564330","0 IRIDIUM 33","1 24946U 97051C   09090.51908601  .00000071  00000-0  18824-4 0  9990","2 24946 086.3816 100.8865 0006283 297.5705 062.4852 14.32471913604452"
"2.0","GENERATED VIA SPACE-TRACK.ORG API","2009-04-01T07:49:42","18 SPCS","IRIDIUM 33","1997-051C","EARTH","TEME","UTC","SGP4","2009-03-31T12:27:29.031263","14.32471913","0.00062830","86.3816","100.8865","297.5705","62.4852","0","U","24946","999","60445","0.00001882400000","0.00000071","0.0000000000000","7161.621","100.525","787.986","778.987","PAYLOAD","LARGE","US","1997-09-14","TTMTR","","694717","70571860","0 IRIDIUM 33","1 24946U 97051C   09090.51908601  .00000071  00000-0  18824-4 0  9990","2 24946 086.3816 100.8865 0006283 297.5705 062.4852 14.32471913604452"
"2.0","GENERATED VIA SPACE-TRACK.ORG API","2009-04-01T07:54:25","18 SPCS","COSMOS 2251","1993-036A","EARTH","TEME","UTC","SGP4","2009-04-01T11:53:40.999487","14.32042913","0.00246020","74.0362","286.4507","54.2313","306.1120","0","U","22675","999","82471","0.00000940100000","-0.00000001","0.0000000000000","7163.051","100.555","802.539","767.294","PAYLOAD","LARGE","CIS","1993-06-16","PKMTR","","694725","70571933","0 COSMOS 2251","1 22675U 93036A   09091.49561342 -.00000001  00000-0  94010-5 0  9997","2 22675 074.0362 286.4507 0024602 054.2313 306.1120 14.32042913824714"
"2.0","GENERATED VIA SPACE-TRACK.ORG API","2009-04-01T07:54:41","18 SPCS","IRIDIUM 33","1997-051C","EARTH","TEME","UTC","SGP4","2009-04-01T11:55:43.748832","14.32472065","0.00062290","86.3816","100.4774","293.7686","66.2861","0","U","24946","999","60459","0.00002108400000","0.00000077","0.0000000000000","7161.621","100.525","787.947","779.025","PAYLOAD","LARGE","US","1997-09-14","TTMTR","","694726","70571934","0 IRIDIUM 33","1 24946U 97051C   09091.49703413  .00000077  00000-0  21084-4 0  9990","2 24946 086.3816 100.4774 0006229 293.7686 066.2861 14.32472065604599"
"2.0","GENERATED VIA SPACE-TRACK.ORG API","2009-04-02T07:41:30","18 SPCS","IRIDIUM 33","1997-051C","EARTH","TEME","UTC","SGP4","2009-04-01T11:55:43.748832","14.32472065","0.00062290","86.3816","100.4774","293.7686","66.2861","0","U","24946","999","60459","0.00002108400000","0.00000077","0.0000000000000","7161.621","100.525","787.947","779.025","PAYLOAD","LARGE","US","1997-09-14","TTMTR","","695250","70588248","0 IRIDIUM 33","1 24946U 97051C   09091.49703413  .00000077  00000-0  21084-4 0  9990","2 24946 086.3816 100.4774 0006229 293.7686 066.2861 14.32472065604599"
"2.0","GENERATED VIA SPACE-TRACK.ORG API","2009-04-02T07:54:30","18 SPCS","COSMOS 2251","1993-036A","EARTH","TEME","UTC","SGP4","2009-04-02T13:02:37.247423","14.32042899","0.00246140","74.0363","284.5397","52.0500","308.2859","0","U","22675","999","82486","0.00000834850000","-0.00000003","0.0000000000000","7163.051","100.555","802.548","767.285","PAYLOAD","LARGE","CIS","1993-06-16","PKMTR","","695262","70588356","0 COSMOS 2251","1 22675U 93036A   09092.54348666 -.00000003  00000-0  83485-5 0  9992","2 22675 074.0363 284.5397 0024614 052.0500 308.2859 14.32042899824869"
"2.0","GENERATED VIA SPACE-TRACK.ORG API","2009-04-02T07:54:48","18 SPCS","IRIDIUM 33","1997-051C","EARTH","TEME","UTC","SGP4","2009-04-02T13:04:33.790655","14.32472140","0.00061300","86.3816","100.0391","289.2705","70.7827","0","U","24946","999","60474","0.00001931300000","0.00000072","0.0000000000000","7161.620","100.525","787.875","779.095","PAYLOAD","LARGE","US","1997-09-14","TTMTR","","695263","70588357","0 IRIDIUM 33","1 24946U 97051C   09092.54483554  .00000072  00000-0  19313-4 0  9995","2 24946 086.3816 100.0391 0006130 289.2705 070.7827 14.32472140604746"
"2.0","GENERATED VIA SPACE-TRACK.ORG API","2009-04-03T07:59:17","18 SPCS","COSMOS 2251","1993-036A","EARTH","TEME","UTC","SGP4","2009-04-03T12:30:57.761567","14.32043011","0.00246300","74.0364","282.7559","50.0366","310.2949","0","U","22675","999","82500","0.00000980880000","0.00000001","0.0000000000000","7163.051","100.555","802.559","767.273","PAYLOAD","LARGE","CIS","1993-06-16","PKMTR","","695710","70602394","0 COSMOS 2251","1 22675U 93036A   09093.52150187  .00000001  00000-0  98088-5 0  9992","2 22675 074.0364 282.7559 0024630 050.0366 310.2949 14.32043011825003"
"2.0","GENERATED VIA SPACE-TRACK.ORG API","2009-04-03T07:59:10","18 SPCS","IRIDIUM 33","1997-051C","EARTH","TEME","UTC","SGP4","2009-04-03T12:32:48.504767","14.32472151","0.00060360","86.3817","99.6301","284.6606","75.3917","0","U","24946","999","60488","0.00001617600000","0.00000063","0.0000000000000","7161.620","100.525","787.808","779.163","PAYLOAD","LARGE","US","1997-09-14","TTMTR","","695709","70602393","0 IRIDIUM 33","1 24946U 97051C   09093.52278362  .00000063  00000-0  16176-4 0  9997","2 24946 086.3817 099.6301 0006036 284.6606 075.3917 14.32472151604883"
"2.0","GENERATED VIA SPACE-TRACK.ORG API","2009-04-03T09:31:17","18 SPCS","IRIDIUM 33","1997-051C","EARTH","TEME","UTC","SGP4","2009-04-03T12:32:48.504767","14.32472151","0.00060360","86.3817","99.6301","284.6606","75.3917","0","U","24946","999","60488","0.00001617600000","0.00000063","0.0000000000000","7161.620","100.525","787.808","779.163","PAYLOAD","LARGE","US","1997-09-14","TTMTR","","695773","70611614","0 IRIDIUM 33","1 24946U 97051C   09093.52278362  .00000063  00000-0  16176-4 0  9997","2 24946 086.3817 099.6301 0006036 284.6606 075.3917 14.32472151604883"
"2.0","GENERATED VIA SPACE-TRACK.ORG API","2009-04-04T12:12:34","18 SPCS","IRIDIUM 33","1997-051C","EARTH","TEME","UTC","SGP4","2009-04-03T12:32:48.504767","14.32472151","0.00060360","86.3817","99.6301","284.6606","75.3917","0","U","24946","999","60488","0.00001617600000","0.00000063","0.0000000000000","7161.620","100.525","787.808","779.163","PAYLOAD","LARGE","US","1997-09-14","TTMTR","","696368","70628556","0 IRIDIUM 33","1 24946U 97051C   09093.52278362  .00000063  00000-0  16176-4 0  9997","2 24946 086.3817 099.6301 0006036 284.6606 075.3917 14.32472151604883"
"2.0","GENERATED VIA SPACE-TRACK.ORG API","2009-04-04T12:31:02","18 SPCS","IRIDIUM 33","1997-051C","EARTH","TEME","UTC","SGP4","2009-04-03T12:32:48.504767","14.32472151","0.00060360","86.3817","99.6301","284.6606","75.3917","0","U","24946","999","60488","0.00001617600000","0.00000063","0.0000000000000","7161.620","100.525","787.808","779.163","PAYLOAD","LARGE","US","1997-09-14","TTMTR","","696377","70628722","0 IRIDIUM 33","1 24946U 97051C   09093.52278362  .00000063  00000-0  16176-4 0  9997","2 24946 086.3817 099.6301 0006036 284.6606 075.3917 14.32472151604883"
"2.0","GENERATED VIA SPACE-TRACK.ORG API","2009-04-05T08:35:46","18 SPCS","IRIDIUM 33","1997-051C","EARTH","TEME","UTC","SGP4","2009-04-03T12:32:48.504767","14.32472151","0.00060360","86.3817","99.6301","284.6606","75.3917","0","U","24946","999","60488","0.00001617600000","0.00000063","0.0000000000000","7161.620","100.525","787.808","779.163","PAYLOAD","LARGE","US","1997-09-14","TTMTR","","696648","70633427","0 IRIDIUM 33","1 24946U 97051C   09093.52278362  .00000063  00000-0  16176-4 0  9997","2 24946 086.3817 099.6301 0006036 284.6606 075.3917 14.32472151604883"
"2.0","GENERATED VIA SPACE-TRACK.ORG API","2009-04-06T07:39:03","18 SPCS","IRIDIUM 33","1997-051C","EARTH","TEME","UTC","SGP4","2009-04-03T12:32:48.504767","14.32472151","0.00060360","86.3817","99.6301","284.6606","75.3917","0","U","24946","999","60488","0.00001617600000","0.00000063","0.0000000000000","7161.620","100.525","787.808","779.163","PAYLOAD","LARGE","US","1997-09-14","TTMTR","","696988","70647721","0 IRIDIUM 33","1 24946U 97051C   09093.52278362  .00000063  00000-0  16176-4 0  9997","2 24946 086.3817 099.6301 0006036 284.6606 075.3917 14.32472151604883"
